PRAETORIAN SDA_609      
1 65572U 25203H   26068.55367936  .00000194  00000+0  16281-3 0  9997
2 65572  81.3020 103.0603 0008251 102.7158 257.4922 13.84314664 24911
PRAETORIAN SDA_618      
1 65581U 25203S   26068.55602848  .00000249  00000+0  21051-3 0  9993
2 65581  81.2991 102.8568 0011029 103.2416 256.9972 13.84762520 24922
